{
"type": "FeatureCollection",
"name": "ghi_instrument_locations",
"crs": { "type": "name", "properties": { "name": "urn:ogc:def:crs:OGC:1.3:CRS84" } },
"features": [
{ "type": "Feature", "properties": { "name": "Aberdaron Automatic Weather Station", "latitude": 52.79, "longitude": -4.74 }, "geometry": { "type": "Point", "coordinates": [ -4.74, 52.79 ] } },
{ "type": "Feature", "properties": { "name": "Abergwyngregyn Automatic Weather Station", "latitude": 53.24, "longitude": -4.01 }, "geometry": { "type": "Point", "coordinates": [ -4.01, 53.24 ] } },
{ "type": "Feature", "properties": { "name": "Aberporth Automatic Weather Station", "latitude": 52.14, "longitude": -4.57 }, "geometry": { "type": "Point", "coordinates": [ -4.57, 52.14 ] } },
{ "type": "Feature", "properties": { "name": "Aldergrove Automatic Weather Station", "latitude": 54.66, "longitude": -6.23 }, "geometry": { "type": "Point", "coordinates": [ -6.23, 54.66 ] } },
{ "type": "Feature", "properties": { "name": "Almondsbury Automatic Weather Station", "latitude": 51.55, "longitude": -2.56 }, "geometry": { "type": "Point", "coordinates": [ -2.56, 51.55 ] } },
{ "type": "Feature", "properties": { "name": "Altnaharra No 2 Automatic Weather Station", "latitude": 58.29, "longitude": -4.44 }, "geometry": { "type": "Point", "coordinates": [ -4.44, 58.29 ] } },
{ "type": "Feature", "properties": { "name": "Ardtornish Automatic Weather Station", "latitude": 56.53, "longitude": -5.77 }, "geometry": { "type": "Point", "coordinates": [ -5.77, 56.53 ] } },
{ "type": "Feature", "properties": { "name": "Auchincruive Automatic Weather Station", "latitude": 55.48, "longitude": -4.57 }, "geometry": { "type": "Point", "coordinates": [ -4.57, 55.48 ] } },
{ "type": "Feature", "properties": { "name": "Aviemore Automatic Weather Station", "latitude": 57.21, "longitude": -3.83 }, "geometry": { "type": "Point", "coordinates": [ -3.83, 57.21 ] } },
{ "type": "Feature", "properties": { "name": "Ballypatrick Forest Automatic Weather Station", "latitude": 55.18, "longitude": -6.15 }, "geometry": { "type": "Point", "coordinates": [ -6.15, 55.18 ] } },
{ "type": "Feature", "properties": { "name": "Bedford Automatic Weather Station", "latitude": 52.23, "longitude": -0.47 }, "geometry": { "type": "Point", "coordinates": [ -0.47, 52.23 ] } },
{ "type": "Feature", "properties": { "name": "Boulmer Automatic Weather Station", "latitude": 55.42, "longitude": -1.6 }, "geometry": { "type": "Point", "coordinates": [ -1.6, 55.42 ] } },
{ "type": "Feature", "properties": { "name": "Braemar No 2 Automatic Weather Station", "latitude": 57.01, "longitude": -3.4 }, "geometry": { "type": "Point", "coordinates": [ -3.4, 57.01 ] } },
{ "type": "Feature", "properties": { "name": "Bramham Automatic Weather Station", "latitude": 53.87, "longitude": -1.32 }, "geometry": { "type": "Point", "coordinates": [ -1.32, 53.87 ] } },
{ "type": "Feature", "properties": { "name": "Camborne Automatic Weather Station", "latitude": 50.22, "longitude": -5.33 }, "geometry": { "type": "Point", "coordinates": [ -5.33, 50.22 ] } },
{ "type": "Feature", "properties": { "name": "Cardinham Bodmin Automatic Weather Station", "latitude": 50.5, "longitude": -4.67 }, "geometry": { "type": "Point", "coordinates": [ -4.67, 50.5 ] } },
{ "type": "Feature", "properties": { "name": "Charlwood Automatic Weather Station", "latitude": 51.14, "longitude": -0.23 }, "geometry": { "type": "Point", "coordinates": [ -0.23, 51.14 ] } },
{ "type": "Feature", "properties": { "name": "Charterhall Automatic Weather Station", "latitude": 55.71, "longitude": -2.38 }, "geometry": { "type": "Point", "coordinates": [ -2.38, 55.71 ] } },
{ "type": "Feature", "properties": { "name": "Church Lawford Automatic Weather Station", "latitude": 52.36, "longitude": -1.33 }, "geometry": { "type": "Point", "coordinates": [ -1.33, 52.36 ] } },
{ "type": "Feature", "properties": { "name": "Cliff Farm Automatic Weather Station", "latitude": 56.76, "longitude": -5.82 }, "geometry": { "type": "Point", "coordinates": [ -5.82, 56.76 ] } },
{ "type": "Feature", "properties": { "name": "Coleshill Automatic Weather Station", "latitude": 52.48, "longitude": -1.69 }, "geometry": { "type": "Point", "coordinates": [ -1.69, 52.48 ] } },
{ "type": "Feature", "properties": { "name": "Coventry Automatic Weather Station", "latitude": 52.42, "longitude": -1.54 }, "geometry": { "type": "Point", "coordinates": [ -1.54, 52.42 ] } },
{ "type": "Feature", "properties": { "name": "Dundrennan Automatic Weather Station", "latitude": 54.8, "longitude": -4.01 }, "geometry": { "type": "Point", "coordinates": [ -4.01, 54.8 ] } },
{ "type": "Feature", "properties": { "name": "Dunstaffnage Automatic Weather Station", "latitude": 56.45, "longitude": -5.44 }, "geometry": { "type": "Point", "coordinates": [ -5.44, 56.45 ] } },
{ "type": "Feature", "properties": { "name": "Durham Automatic Weather Station", "latitude": 54.77, "longitude": -1.59 }, "geometry": { "type": "Point", "coordinates": [ -1.59, 54.77 ] } },
{ "type": "Feature", "properties": { "name": "Dyce Automatic Weather Station", "latitude": 57.2, "longitude": -2.21 }, "geometry": { "type": "Point", "coordinates": [ -2.21, 57.2 ] } },
{ "type": "Feature", "properties": { "name": "East Malling Automatic Weather Station", "latitude": 51.29, "longitude": 0.45 }, "geometry": { "type": "Point", "coordinates": [ 0.45, 51.29 ] } },
{ "type": "Feature", "properties": { "name": "Edinburgh Gogarbank Automatic Weather Station", "latitude": 55.93, "longitude": -3.34 }, "geometry": { "type": "Point", "coordinates": [ -3.34, 55.93 ] } },
{ "type": "Feature", "properties": { "name": "Eskdalemuir Automatic Weather Station", "latitude": 55.31, "longitude": -3.21 }, "geometry": { "type": "Point", "coordinates": [ -3.21, 55.31 ] } },
{ "type": "Feature", "properties": { "name": "Exeter Airport No 2 Automatic Weather Station", "latitude": 50.74, "longitude": -3.41 }, "geometry": { "type": "Point", "coordinates": [ -3.41, 50.74 ] } },
{ "type": "Feature", "properties": { "name": "Glasgow, Bishopton Automatic Weather Station", "latitude": 55.91, "longitude": -4.53 }, "geometry": { "type": "Point", "coordinates": [ -4.53, 55.91 ] } },
{ "type": "Feature", "properties": { "name": "Hawarden Airport Automatic Weather Station", "latitude": 53.18, "longitude": -2.99 }, "geometry": { "type": "Point", "coordinates": [ -2.99, 53.18 ] } },
{ "type": "Feature", "properties": { "name": "Heathrow Automatic Weather Station", "latitude": 51.48, "longitude": -0.45 }, "geometry": { "type": "Point", "coordinates": [ -0.45, 51.48 ] } },
{ "type": "Feature", "properties": { "name": "Hillsborough Automatic Weather Station", "latitude": 54.45, "longitude": -6.07 }, "geometry": { "type": "Point", "coordinates": [ -6.07, 54.45 ] } },
{ "type": "Feature", "properties": { "name": "Holbeach No 2 Automatic Weather Station", "latitude": 52.87, "longitude": 0.14 }, "geometry": { "type": "Point", "coordinates": [ 0.14, 52.87 ] } },
{ "type": "Feature", "properties": { "name": "Hurn Automatic Weather Station", "latitude": 50.78, "longitude": -1.84 }, "geometry": { "type": "Point", "coordinates": [ -1.84, 50.78 ] } },
{ "type": "Feature", "properties": { "name": "Inverbervie No2 Automatic Weather Station", "latitude": 56.85, "longitude": -2.27 }, "geometry": { "type": "Point", "coordinates": [ -2.27, 56.85 ] } },
{ "type": "Feature", "properties": { "name": "Jersey Airport Automatic Weather Station", "latitude": 49.21, "longitude": -2.19 }, "geometry": { "type": "Point", "coordinates": [ -2.19, 49.21 ] } },
{ "type": "Feature", "properties": { "name": "Kenley Airfield Automatic Weather Station", "latitude": 51.3, "longitude": -0.09 }, "geometry": { "type": "Point", "coordinates": [ -0.09, 51.3 ] } },
{ "type": "Feature", "properties": { "name": "Kew Gardens Automatic Weather Station", "latitude": 51.48, "longitude": -0.29 }, "geometry": { "type": "Point", "coordinates": [ -0.29, 51.48 ] } },
{ "type": "Feature", "properties": { "name": "Kinbrace, Hatchery Automatic Weather Station", "latitude": 58.23, "longitude": -3.92 }, "geometry": { "type": "Point", "coordinates": [ -3.92, 58.23 ] } },
{ "type": "Feature", "properties": { "name": "Kinlochewe Automatic Weather Station", "latitude": 57.61, "longitude": -5.31 }, "geometry": { "type": "Point", "coordinates": [ -5.31, 57.61 ] } },
{ "type": "Feature", "properties": { "name": "Kinloss Automatic Weather Station", "latitude": 57.65, "longitude": -3.56 }, "geometry": { "type": "Point", "coordinates": [ -3.56, 57.65 ] } },
{ "type": "Feature", "properties": { "name": "Kirkwall Automatic Weather Station", "latitude": 58.95, "longitude": -2.9 }, "geometry": { "type": "Point", "coordinates": [ -2.9, 58.95 ] } },
{ "type": "Feature", "properties": { "name": "Lake Vyrnwy No 2 Automatic Weather Station", "latitude": 52.76, "longitude": -3.47 }, "geometry": { "type": "Point", "coordinates": [ -3.47, 52.76 ] } },
{ "type": "Feature", "properties": { "name": "Leconfield Automatic Weather Station", "latitude": 53.87, "longitude": -0.44 }, "geometry": { "type": "Point", "coordinates": [ -0.44, 53.87 ] } },
{ "type": "Feature", "properties": { "name": "Leeming Automatic Weather Station", "latitude": 54.3, "longitude": -1.53 }, "geometry": { "type": "Point", "coordinates": [ -1.53, 54.3 ] } },
{ "type": "Feature", "properties": { "name": "Lerwick Automatic Weather Station", "latitude": 60.14, "longitude": -1.18 }, "geometry": { "type": "Point", "coordinates": [ -1.18, 60.14 ] } },
{ "type": "Feature", "properties": { "name": "Leuchars Automatic Weather Station", "latitude": 56.38, "longitude": -2.86 }, "geometry": { "type": "Point", "coordinates": [ -2.86, 56.38 ] } },
{ "type": "Feature", "properties": { "name": "Liscombe Automatic Weather Station", "latitude": 51.09, "longitude": -3.61 }, "geometry": { "type": "Point", "coordinates": [ -3.61, 51.09 ] } },
{ "type": "Feature", "properties": { "name": "Little Rissington Automatic Weather Station", "latitude": 51.86, "longitude": -1.69 }, "geometry": { "type": "Point", "coordinates": [ -1.69, 51.86 ] } },
{ "type": "Feature", "properties": { "name": "Loch Glascarnoch Automatic Weather Station", "latitude": 57.72, "longitude": -4.9 }, "geometry": { "type": "Point", "coordinates": [ -4.9, 57.72 ] } },
{ "type": "Feature", "properties": { "name": "Lyneham Automatic Weather Station", "latitude": 51.5, "longitude": -1.99 }, "geometry": { "type": "Point", "coordinates": [ -1.99, 51.5 ] } },
{ "type": "Feature", "properties": { "name": "Magilligan No 2 Automatic Weather Station", "latitude": 55.16, "longitude": -6.95 }, "geometry": { "type": "Point", "coordinates": [ -6.95, 55.16 ] } },
{ "type": "Feature", "properties": { "name": "Manston Automatic Weather Station", "latitude": 51.35, "longitude": 1.34 }, "geometry": { "type": "Point", "coordinates": [ 1.34, 51.35 ] } },
{ "type": "Feature", "properties": { "name": "Monks Wood Automatic Weather Station", "latitude": 52.4, "longitude": -0.24 }, "geometry": { "type": "Point", "coordinates": [ -0.24, 52.4 ] } },
{ "type": "Feature", "properties": { "name": "North Wyke Automatic Weather Station", "latitude": 50.77, "longitude": -3.9 }, "geometry": { "type": "Point", "coordinates": [ -3.9, 50.77 ] } },
{ "type": "Feature", "properties": { "name": "Nottingham, Watnall Automatic Weather Station", "latitude": 53.01, "longitude": -1.25 }, "geometry": { "type": "Point", "coordinates": [ -1.25, 53.01 ] } },
{ "type": "Feature", "properties": { "name": "Odiham Automatic Weather Station", "latitude": 51.24, "longitude": -0.94 }, "geometry": { "type": "Point", "coordinates": [ -0.94, 51.24 ] } },
{ "type": "Feature", "properties": { "name": "Prestwick Gannet Automatic Weather Station", "latitude": 55.52, "longitude": -4.58 }, "geometry": { "type": "Point", "coordinates": [ -4.58, 55.52 ] } },
{ "type": "Feature", "properties": { "name": "Ronaldsway Automatic Weather Station", "latitude": 54.09, "longitude": -4.63 }, "geometry": { "type": "Point", "coordinates": [ -4.63, 54.09 ] } },
{ "type": "Feature", "properties": { "name": "Rosehearty Automatic Weather Station", "latitude": 57.7, "longitude": -2.12 }, "geometry": { "type": "Point", "coordinates": [ -2.12, 57.7 ] } },
{ "type": "Feature", "properties": { "name": "Rostherne No 2 Automatic Weather Station", "latitude": 53.36, "longitude": -2.38 }, "geometry": { "type": "Point", "coordinates": [ -2.38, 53.36 ] } },
{ "type": "Feature", "properties": { "name": "Rothamsted Automatic Weather Station", "latitude": 51.81, "longitude": -0.36 }, "geometry": { "type": "Point", "coordinates": [ -0.36, 51.81 ] } },
{ "type": "Feature", "properties": { "name": "Shap Automatic Weather Station", "latitude": 54.5, "longitude": -2.68 }, "geometry": { "type": "Point", "coordinates": [ -2.68, 54.5 ] } },
{ "type": "Feature", "properties": { "name": "Shawbury Automatic Weather Station", "latitude": 52.79, "longitude": -2.66 }, "geometry": { "type": "Point", "coordinates": [ -2.66, 52.79 ] } },
{ "type": "Feature", "properties": { "name": "Shobdon Airfield Automatic Weather Station", "latitude": 52.24, "longitude": -2.89 }, "geometry": { "type": "Point", "coordinates": [ -2.89, 52.24 ] } },
{ "type": "Feature", "properties": { "name": "St Athan Automatic Weather Station", "latitude": 51.41, "longitude": -3.44 }, "geometry": { "type": "Point", "coordinates": [ -3.44, 51.41 ] } },
{ "type": "Feature", "properties": { "name": "Stornoway Airport Automatic Weather Station", "latitude": 58.21, "longitude": -6.32 }, "geometry": { "type": "Point", "coordinates": [ -6.32, 58.21 ] } },
{ "type": "Feature", "properties": { "name": "Strathallan Airfield Automatic Weather Station", "latitude": 56.33, "longitude": -3.73 }, "geometry": { "type": "Point", "coordinates": [ -3.73, 56.33 ] } },
{ "type": "Feature", "properties": { "name": "Sutton Bonington Automatic Weather Station", "latitude": 52.84, "longitude": -1.25 }, "geometry": { "type": "Point", "coordinates": [ -1.25, 52.84 ] } },
{ "type": "Feature", "properties": { "name": "Tain Range Automatic Weather Station", "latitude": 57.82, "longitude": -3.97 }, "geometry": { "type": "Point", "coordinates": [ -3.97, 57.82 ] } },
{ "type": "Feature", "properties": { "name": "Thomastown Automatic Weather Station", "latitude": 54.33, "longitude": -7.59 }, "geometry": { "type": "Point", "coordinates": [ -7.59, 54.33 ] } },
{ "type": "Feature", "properties": { "name": "Thorney Island Automatic Weather Station", "latitude": 50.81, "longitude": -0.92 }, "geometry": { "type": "Point", "coordinates": [ -0.92, 50.81 ] } },
{ "type": "Feature", "properties": { "name": "Threave Automatic Weather Station", "latitude": 54.93, "longitude": -3.95 }, "geometry": { "type": "Point", "coordinates": [ -3.95, 54.93 ] } },
{ "type": "Feature", "properties": { "name": "Tibenham Airfield Automatic Weather Station", "latitude": 52.46, "longitude": 1.16 }, "geometry": { "type": "Point", "coordinates": [ 1.16, 52.46 ] } },
{ "type": "Feature", "properties": { "name": "Tiree Automatic Weather Station", "latitude": 56.5, "longitude": -6.88 }, "geometry": { "type": "Point", "coordinates": [ -6.88, 56.5 ] } },
{ "type": "Feature", "properties": { "name": "Tulloch Bridge Automatic Weather Station", "latitude": 56.87, "longitude": -4.71 }, "geometry": { "type": "Point", "coordinates": [ -4.71, 56.87 ] } },
{ "type": "Feature", "properties": { "name": "Valley Automatic Weather Station", "latitude": 53.25, "longitude": -4.54 }, "geometry": { "type": "Point", "coordinates": [ -4.54, 53.25 ] } },
{ "type": "Feature", "properties": { "name": "Waddington Automatic Weather Station", "latitude": 53.18, "longitude": -0.52 }, "geometry": { "type": "Point", "coordinates": [ -0.52, 53.18 ] } },
{ "type": "Feature", "properties": { "name": "Wattisham Automatic Weather Station", "latitude": 52.12, "longitude": 0.96 }, "geometry": { "type": "Point", "coordinates": [ 0.96, 52.12 ] } },
{ "type": "Feature", "properties": { "name": "Winterbourne No 2 Automatic Weather Station", "latitude": 52.46, "longitude": -1.93 }, "geometry": { "type": "Point", "coordinates": [ -1.93, 52.46 ] } },
{ "type": "Feature", "properties": { "name": "Wisley Automatic Weather Station", "latitude": 51.31, "longitude": -0.48 }, "geometry": { "type": "Point", "coordinates": [ -0.48, 51.31 ] } },
{ "type": "Feature", "properties": { "name": "Wittering Automatic Weather Station", "latitude": 52.61, "longitude": -0.47 }, "geometry": { "type": "Point", "coordinates": [ -0.47, 52.61 ] } },
{ "type": "Feature", "properties": { "name": "Woburn Automatic Weather Station", "latitude": 52.01, "longitude": -0.6 }, "geometry": { "type": "Point", "coordinates": [ -0.6, 52.01 ] } },
{ "type": "Feature", "properties": { "name": "Yeovilton Automatic Weather Station", "latitude": 51.01, "longitude": -2.64 }, "geometry": { "type": "Point", "coordinates": [ -2.64, 51.01 ] } }
]
}
